NORAD_CAT_ID,OBJECT_NAME,OBJECT_TYPE,EPOCH,MEAN_MOTION,ECCENTRICITY,INCLINATION,RA_OF_ASC_NODE,ARG_OF_PERICENTER,MEAN_ANOMALY,BSTAR,MEAN_MOTION_DOT,MEAN_MOTION_DDOT,TLE_LINE0,TLE_LINE1,TLE_LINE2,SEMIMAJOR_AXIS,PERIOD,APOGEE,PERIGEE,DECAYED
54184.0,STARLINK-5162,PAYLOAD,2022-12-05 06:00:00,15.72961778,0.0003563999999999,53.2169,314.8109,306.8039,215.7542,-0.0079565,-0.01001178,0.0,0 STARLINK-5162,1 54184U 22141AD  22339.25001157 -.01001178  00000-0 -79565-2 0  9996,2 54184  53.2169 314.8109 0003564 306.8039 215.7542 15.72961778  6277,6728.574000000001,91.547,352.838,348.041,0.0
54184.0,STARLINK-5162,PAYLOAD,2022-12-05 14:00:01,15.72256062,0.000416,53.2169,313.1617,293.1878,317.6377,-0.0096233,-0.01156207,0.0,0 STARLINK-5162,1 54184U 22141AD  22339.58335648 -.01156207  00000-0 -96233-2 0  9992,2 54184  53.2169 313.1617 0004160 293.1878 317.6377 15.72256062  6322,6730.5880000000025,91.588,355.25300000000016,349.653,0.0
54184.0,STARLINK-5162,PAYLOAD,2022-12-05 22:00:01,15.71422603,0.0006437999999999,53.2176,311.5138,274.2868,63.8175,-0.0096556,-0.01124908,0.0,0 STARLINK-5162,1 54184U 22141AD  22339.91668981 -.01124908  00000-0 -96556-2 0  9999,2 54184  53.2176 311.5138 0006438 274.2868  63.8175 15.71422603  1303,6732.967,91.637,359.167,350.49800000000016,0.0
54184.0,STARLINK-5162,PAYLOAD,2022-12-06 14:00:01,15.69810335,0.0005216,53.2167,308.2291,270.7188,238.987,-0.010599,-0.01149464,0.0,0 STARLINK-5162,1 54184U 22141AD  22340.58335648 -.01149464  00000-0 -10599-1 0  9991,2 54184  53.2167 308.2291 0005216 270.7188 238.9870 15.69810335  1302,6737.5769999999975,91.731,362.956,355.927,0.0
54184.0,STARLINK-5162,PAYLOAD,2022-12-06 22:00:00,15.69032387,0.0002318,53.2164,306.588,288.3081,305.6483,-0.011352,-0.01205701,0.0,0 STARLINK-5162,1 54184U 22141AD  22340.91667824 -.01205701  00000-0 -11352-1 0  9997,2 54184  53.2164 306.5880 0002318 288.3081 305.6483 15.69032387  6536,6739.804,91.776,363.231,360.106,0.0
54184.0,STARLINK-5162,PAYLOAD,2022-12-07 14:00:01,15.67321267,0.0001334,53.2168,303.3138,49.3521,350.3832,-0.010895,-0.01072308,0.0,0 STARLINK-5162,1 54184U 22141AD  22341.58334491 -.01072308  00000-0 -10895-1 0  9998,2 54184  53.2168 303.3138 0001334  49.3521 350.3832 15.67321267  6645,6744.708000000001,91.877,367.473,365.673,0.0
54184.0,STARLINK-5162,PAYLOAD,2022-12-07 22:00:00,15.66538187,0.0001405,53.2177,301.6785,50.2468,70.8815,-0.011775,-0.01135371,0.0,0 STARLINK-5162,1 54184U 22141AD  22341.91667824 -.01135371  00000-0 -11775-1 0  9992,2 54184  53.2177 301.6785 0001405  50.2468  70.8815 15.66538187  1307,6746.956,91.922,369.769,367.87300000000016,0.0
54184.0,STARLINK-5162,PAYLOAD,2022-12-08 06:00:00,15.657249800000002,0.0001496,53.2177,300.0483,51.6116,149.941,-0.012178,-0.01136097,0.0,0 STARLINK-5162,1 54184U 22141AD  22342.25001157 -.01136097  00000-0 -12178-1 0  9995,2 54184  53.2177 300.0483 0001496  51.6116 149.9410 15.65724980  6749,6749.292,91.97,372.166,370.147,0.0
54184.0,STARLINK-5162,PAYLOAD,2022-12-08 14:00:01,15.64913065,0.0001123,53.2172,298.4168,71.0852,209.9157,-0.012631,-0.0113991,0.0,0 STARLINK-5162,1 54184U 22141AD  22342.58334491 -.01139910  00000-0 -12631-1 0  9992,2 54184  53.2172 298.4168 0001123  71.0852 209.9157 15.64913065  1309,6751.626,92.018,374.249,372.733,0.0
54184.0,STARLINK-5162,PAYLOAD,2022-12-08 22:00:01,15.64097717,0.0001066,53.2176,296.7875,68.6596,290.8771,-0.012998,-0.01135796,0.0,0 STARLINK-5162,1 54184U 22141AD  22342.91668981 -.01135796  00000-0 -12998-1 0  9997,2 54184  53.2176 296.7875 0001066  68.6596 290.8771 15.64097717  6855,6753.972,92.066,376.557,375.117,0.0
54184.0,STARLINK-5162,PAYLOAD,2022-12-09 14:00:01,15.62470919,0.0001199,53.2172,293.5376,76.7692,76.7084,-0.013878,-0.01136978,0.0,0 STARLINK-5162,1 54184U 22141AD  22343.58334491 -.01136978  00000-0 -13878-1 0  9998,2 54184  53.2172 293.5376 0001199  76.7692  76.7084 15.62470919  1306,6758.659000000002,92.162,381.335,379.714,0.0
54184.0,STARLINK-5162,PAYLOAD,2022-12-10 14:00:01,15.60028868,0.0001068,53.2176,288.6758,63.0103,314.1435,-0.015232,-0.011349,0.0,0 STARLINK-5162,1 54184U 22141AD  22344.58334491 -.01134900  00000-0 -15232-1 0  9998,2 54184  53.2176 288.6758 0001068  63.0103 314.1435 15.60028868  7114,6765.7109999999975,92.306,388.298,386.853,0.0
54184.0,STARLINK-5162,PAYLOAD,2022-12-10 22:00:00,15.59214355,0.0001208,53.2178,287.0591,63.959,25.798,-0.015686,-0.01132971,0.0,0 STARLINK-5162,1 54184U 22141AD  22344.91667824 -.01132971  00000-0 -15686-1 0  9993,2 54184  53.2178 287.0591 0001208  63.9590  25.7980 15.59214355  1300,6768.066999999999,92.354,390.749,389.114,0.0
54184.0,STARLINK-5162,PAYLOAD,2022-12-11 06:00:00,15.58397743,0.0001361,53.2176,285.4464,62.6372,98.7447,-0.016105,-0.011281,0.0,0 STARLINK-5162,1 54184U 22141AD  22345.25001157 -.01128100  00000-0 -16105-1 0  9998,2 54184  53.2176 285.4464 0001361  62.6372  98.7447 15.58397743  7219,6770.431,92.403,393.217,391.374,0.0
54184.0,STARLINK-5162,PAYLOAD,2022-12-11 14:00:01,15.57588124,0.0001237,53.2176,283.832,72.3192,159.7094,-0.016713,-0.01134566,0.0,0 STARLINK-5162,1 54184U 22141AD  22345.58334491 -.01134566  00000-0 -16713-1 0  9992,2 54184  53.2176 283.8320 0001237  72.3192 159.7094 15.57588124  1306,6772.776999999999,92.451,395.479,393.804,0.0
54184.0,STARLINK-5162,PAYLOAD,2022-12-11 22:00:01,15.56773711,0.0001122,53.2176,282.2214,80.182,221.5809,-0.017207,-0.01132932,0.0,0 STARLINK-5162,1 54184U 22141AD  22345.91668981 -.01132932  00000-0 -17207-1 0  9997,2 54184  53.2176 282.2214 0001122  80.1820 221.5809 15.56773711  1308,6775.139,92.499,397.764,396.24300000000005,0.0
54184.0,STARLINK-5162,PAYLOAD,2022-12-12 14:00:01,15.55144226,0.0001065,53.2175,279.0061,83.0682,355.0357,-0.018226,-0.01129554,0.0,0 STARLINK-5162,1 54184U 22141AD  22346.58334491 -.01129554  00000-0 -18226-1 0  9995,2 54184  53.2175 279.0061 0001065  83.0682 355.0357 15.55144226  7427,6779.87,92.596,402.457,401.013,0.0
54184.0,STARLINK-5162,PAYLOAD,2022-12-12 22:00:00,15.54345558,0.0001252,53.2166,277.4019,75.6216,69.2105,-0.019145,-0.01149855,0.0,0 STARLINK-5162,1 54184U 22141AD  22346.91667824 -.01149855  00000-0 -19145-1 0  9998,2 54184  53.2166 277.4019 0001252  75.6216  69.2105 15.54345558  1306,6782.193,92.643,404.907,403.209,0.0
54184.0,STARLINK-5162,PAYLOAD,2022-12-13 06:00:00,15.53253727,0.0001057,53.218,275.7999,56.9332,153.6988,-0.00076851,-0.00049371,0.0,0 STARLINK-5162,1 54184U 22141AD  22347.25001157 -.00049371  00000-0 -76851-3 0  9997,2 54184  53.2180 275.7999 0001057  56.9332 153.6988 15.53253727  7526,6785.371,92.709,407.953,406.518,0.0
54184.0,STARLINK-5162,PAYLOAD,2022-12-13 14:00:01,15.52703611,0.0001154,53.2177,274.1976,95.4254,179.952,-0.01994,-0.01129787,0.0,0 STARLINK-5162,1 54184U 22141AD  22347.58334491 -.01129787  00000-0 -19940-1 0  9998,2 54184  53.2177 274.1976 0001154  95.4254 179.9520 15.52703611  7589,6786.973000000001,92.741,409.621,408.055,0.0
54184.0,STARLINK-5162,PAYLOAD,2022-12-13 22:00:00,15.51890979,0.0001062,53.2178,272.5992,78.4831,260.6957,-0.020568,-0.01131308,0.0,0 STARLINK-5162,1 54184U 22141AD  22347.91667824 -.01131308  00000-0 -20568-1 0  9994,2 54184  53.2178 272.5992 0001062  78.4831 260.6957 15.51890979  1309,6789.342,92.79,411.92800000000005,410.486,0.0
54184.0,STARLINK-5162,PAYLOAD,2022-12-14 06:00:00,15.51037298,0.0001002,53.2174,271.0037,78.9143,323.0972,-0.019475,-0.01046985,0.0,0 STARLINK-5162,1 54184U 22141AD  22348.25001157 -.01046985  00000-0 -19475-1 0  9994,2 54184  53.2174 271.0037 0001002  78.9143 323.0972 15.51037298  7689,6791.833000000001,92.841,414.379,413.018,0.0
54184.0,STARLINK-5162,PAYLOAD,2022-12-14 14:00:01,15.50175748,9.51e-05,53.2173,269.4072,85.8872,17.9719,-0.007303,-0.00398603,0.0,0 STARLINK-5162,1 54184U 22141AD  22348.58334491 -.00398603  00000-0 -73030-2 0  9994,2 54184  53.2173 269.4072 0000951  85.8872  17.9719 15.50175748  1309,6794.349,92.893,416.861,415.568,0.0
54184.0,STARLINK-5162,PAYLOAD,2022-12-14 22:00:00,15.49958278,0.0001104,53.2132,267.8186,85.1647,79.7307,-0.00028114,-0.00016415,0.0,0 STARLINK-5162,1 54184U 22141AD  22348.91667824 -.00016415  00000-0 -28114-3 0  9992,2 54184  53.2132 267.8186 0001104  85.1647  79.7307 15.49958278  7788,6794.985,92.906,417.6,416.1,0.0
54184.0,STARLINK-5162,PAYLOAD,2022-12-15 14:00:01,15.49903819,0.0001175,53.2138,264.6313,89.8947,196.9834,-0.00012992,-7.822e-05,0.0,0 STARLINK-5162,1 54184U 22141AD  22349.58334491 -.00007822  00000-0 -12992-3 0  9996,2 54184  53.2138 264.6313 0001175  89.8947 196.9834 15.49903819  1303,6795.144,92.909,417.8080000000001,416.211,0.0
54184.0,STARLINK-5162,PAYLOAD,2022-12-15 22:00:00,15.49887345,0.0001124,53.2142,263.039,88.1817,259.635,-0.00051053,-0.0002932,0.0,0 STARLINK-5162,1 54184U 22141AD  22349.91667824 -.00029320  00000-0 -51053-3 0  9990,2 54184  53.2142 263.0390 0001124  88.1817 259.6350 15.49887345  7949,6795.191999999999,92.91,417.821,416.294,0.0
54184.0,STARLINK-5162,PAYLOAD,2022-12-16 14:00:01,15.49887793,0.0001457,53.2142,259.8516,89.8123,19.8368,0.00037202,0.00020721,0.0,0 STARLINK-5162,1 54184U 22141AD  22350.58334491  .00020721  00000-0  37202-3 0  9990,2 54184  53.2142 259.8516 0001457  89.8123  19.8368 15.49887793  8043,6795.191,92.91,418.046,416.066,0.0
54184.0,STARLINK-5162,PAYLOAD,2022-12-16 22:00:00,15.49894994,0.0001426,53.2144,258.2592,86.569,84.0103,-0.00077809,-0.00044379,0.0,0 STARLINK-5162,1 54184U 22141AD  22350.91667824 -.00044379  00000-0 -77809-3 0  9990,2 54184  53.2144 258.2592 0001426  86.5690  84.0103 15.49894994  1305,6795.17,92.91,418.004,416.066,0.0
54184.0,STARLINK-5162,PAYLOAD,2022-12-17 06:00:00,15.49860025,0.0001328,53.2143,256.6671,78.6798,152.8055,0.00090653,0.00051291,0.0,0 STARLINK-5162,1 54184U 22141AD  22351.25001157  .00051291  00000-0  90653-3 0  9990,2 54184  53.2143 256.6671 0001328  78.6798 152.8055 15.49860025  8143,6795.272,92.912,418.04,416.235,0.0
